IRIDIUM 921             
1 24873U 97034E   24365.55961982  .00248752  00000+0  16081-2 0  9997
2 24873  86.3654 188.8718 0001558  43.4187 316.7209 15.75389016505648
IRIDIUM 26              
1 24903U 97043A   24365.81634909  .00001248  00000+0  41570-3 0  9995
2 24903  86.3980 181.2784 0001803  86.5582 273.5822 14.36879368432565
IRIDIUM 22              
1 24907U 97043E   24365.74797708  .00001294  00000+0  44132-3 0  9996
2 24907  86.3983 184.6974 0002008  90.3443 269.7983 14.35722487432605
DUMMY MASS 1            
1 24925U 97048A   24365.83059631  .00001232  00000+0  13546-3 0  9994
2 24925  86.3353 213.0971 0008024  39.1156 321.0647 14.86705498480113
DUMMY MASS 2            
1 24926U 97048B   24365.83211291  .00001078  00000+0  11884-3 0  9998
2 24926  86.3351 214.6725 0009138  47.1071 313.0919 14.86459161479897
IRIDIUM 29              
1 24944U 97051A   24365.82822593  .00001269  00000+0  42869-3 0  9993
2 24944  86.3963 214.4390 0002195  87.5142 272.6306 14.36189204429107
IRIDIUM 33              
1 24946U 97051C   24365.83890783  .00000700  00000+0  24036-3 0  9997
2 24946  86.3879 213.6832 0005878 267.8474  92.2049 14.34702976428608
IRIDIUM 28              
1 24948U 97051E   24365.84128036  .00001004  00000+0  33144-3 0  9993
2 24948  86.3970 212.0461 0001564  84.5004 275.6372 14.37132470429666
